{
  "norad_id": 62777,
  "name": "STARLINK-33591",
  "history": [
    {
      "epoch": "2026-03-28T17:14:05.468640Z",
      "apogee_km": 475.7960727713553,
      "perigee_km": 474.6060591495825,
      "latitude_deg": 6.492457231223119e-05,
      "longitude_deg": 149.46891628012636,
      "height_km": 476.0923834918253,
      "semi_major_axis_km": 6853.338065960469,
      "eccentricity": 8.682e-05,
      "inclination_deg": 53.1594,
      "raan_deg": 234.1262,
      "arg_perigee_deg": 89.3042,
      "mean_anomaly_deg": 270.8059,
      "mean_motion_rev_day": 15.3020469
    },
    {
      "epoch": "2026-03-29T02:38:24.855360Z",
      "apogee_km": 476.3862600996863,
      "perigee_km": 473.98238911186763,
      "latitude_deg": 3.869387819833025e-05,
      "longitude_deg": 6.18125324088337,
      "height_km": 475.95591204540136,
      "semi_major_axis_km": 6853.321324605777,
      "eccentricity": 0.00017538,
      "inclination_deg": 53.1566,
      "raan_deg": 232.3056,
      "arg_perigee_deg": 84.0086,
      "mean_anomaly_deg": 276.1115,
      "mean_motion_rev_day": 15.30210297
    },
    {
      "epoch": "2026-03-30T13:07:34.857408Z",
      "apogee_km": 476.01315296763823,
      "perigee_km": 474.4241339281489,
      "latitude_deg": -2.132789100513259e-05,
      "longitude_deg": -159.20025987801884,
      "height_km": 475.7479649969348,
      "semi_major_axis_km": 6853.355643447893,
      "eccentricity": 0.00011593,
      "inclination_deg": 53.1599,
      "raan_deg": 225.6321,
      "arg_perigee_deg": 62.3195,
      "mean_anomaly_deg": 297.7923,
      "mean_motion_rev_day": 15.30198803
    },
    {
      "epoch": "2026-03-30T14:41:38.087232Z",
      "apogee_km": 476.04894256373154,
      "perigee_km": 474.38851153818086,
      "latitude_deg": -2.1343921731014432e-07,
      "longitude_deg": 176.91832076931738,
      "height_km": 475.8316903973045,
      "semi_major_axis_km": 6853.3557270509555,
      "eccentricity": 0.00012114,
      "inclination_deg": 53.1592,
      "raan_deg": 225.3285,
      "arg_perigee_deg": 69.9074,
      "mean_anomaly_deg": 290.2057,
      "mean_motion_rev_day": 15.30198775
    },
    {
      "epoch": "2026-03-31T18:54:37.418976Z",
      "apogee_km": 476.1316374856524,
      "perigee_km": 474.3730577790493,
      "latitude_deg": 3.4654730745498194e-05,
      "longitude_deg": 107.05262300421835,
      "height_km": 475.687584848887,
      "semi_major_axis_km": 6853.38934763235,
      "eccentricity": 0.0001283,
      "inclination_deg": 53.1577,
      "raan_deg": 219.8688,
      "arg_perigee_deg": 58.2394,
      "mean_anomaly_deg": 301.8732,
      "mean_motion_rev_day": 15.30187515
    },
    {
      "epoch": "2026-04-01T15:17:17.975904Z",
      "apogee_km": 475.99964161147,
      "perigee_km": 474.20957490339333,
      "latitude_deg": -6.352552474776697e-06,
      "longitude_deg": 156.60241438343897,
      "height_km": 475.5539195147895,
      "semi_major_axis_km": 6853.241608257431,
      "eccentricity": 0.0001306,
      "inclination_deg": 53.1579,
      "raan_deg": 215.9245,
      "arg_perigee_deg": 59.9086,
      "mean_anomaly_deg": 300.2044,
      "mean_motion_rev_day": 15.30236996
    }
  ]
}